[{"OBJECT_NAME":"LAPAN-A3","OBJECT_ID":"2016-040E","EPOCH":"2026-03-09T23:01:57.724896","MEAN_MOTION":15.3238951,"ECCENTRICITY":0.00109839,"INCLINATION":97.1488,"RA_OF_ASC_NODE":68.4254,"ARG_OF_PERICENTER":22.062,"MEAN_ANOMALY":338.1093,"EPHEMERIS_TYPE":0,"CLASSIFICATION_TYPE":"U","NORAD_CAT_ID":41603,"ELEMENT_SET_NO":999,"REV_AT_EPOCH":53961,"BSTAR":0.00017567445,"MEAN_MOTION_DOT":5.428e-5,"MEAN_MOTION_DDOT":0},{"OBJECT_NAME":"STARLINK-2593","OBJECT_ID":"2021-038BD","EPOCH":"2026-03-09T22:48:53.539488","MEAN_MOTION":15.30183404,"ECCENTRICITY":0.0001705,"INCLINATION":53.1613,"RA_OF_ASC_NODE":331.4811,"ARG_OF_PERICENTER":110.8512,"MEAN_ANOMALY":249.2671,"EPHEMERIS_TYPE":0,"CLASSIFICATION_TYPE":"U","NORAD_CAT_ID":48404,"ELEMENT_SET_NO":999,"REV_AT_EPOCH":26748,"BSTAR":-0.0001168203,"MEAN_MOTION_DOT":-3.816e-5,"MEAN_MOTION_DDOT":0}]
